IRIDIUM 26              
1 24903U 97043A   25073.76943320  .00000947  00000+0  31297-3 0  9996
2 24903  86.4005 150.2774 0002380  91.2227 268.9243 14.37024943443658
IRIDIUM 22              
1 24907U 97043E   25073.62167440  .00000844  00000+0  28481-3 0  9993
2 24907  86.4016 153.7923 0002191  95.1431 265.0015 14.35852243443204
DUMMY MASS 1            
1 24925U 97048A   25073.52862204  .00001178  00000+0  12884-3 0  9998
2 24925  86.3416 179.0616 0008771 114.4051 245.8090 14.86855448491062
DUMMY MASS 2            
1 24926U 97048B   25073.81158915  .00001157  00000+0  12724-3 0  9998
2 24926  86.3417 180.5188 0009370 123.2611 236.9513 14.86608836491126
IRIDIUM 29              
1 24944U 97051A   25073.53830457  .00001184  00000+0  39840-3 0  9997
2 24944  86.4032 183.5567 0002026 100.2835 259.8591 14.36338462439681
IRIDIUM 33              
1 24946U 97051C   25073.55678635  .00000767  00000+0  26362-3 0  9990
2 24946  86.3949 182.8023 0008857  40.3676 319.8176 14.34803920439177
IRIDIUM 28              
1 24948U 97051E   25073.57295463  .00001030  00000+0  33916-3 0  9995
2 24948  86.4039 181.1151 0002393  86.3015 273.8456 14.37269220440253
IRIDIUM 36              
1 24967U 97056C   25073.62013215  .00001261  00000+0  41504-3 0  9998
2 24967  86.3997 212.6742 0001941  87.9982 272.1438 14.37471508438635
